      2.10          N: GNSS NAV DATA                        RINEX VERSION / TYPE
fic2rin                                 06/17/2019 00:19:32 PGM / RUN BY / DATE
                                                            END OF HEADER
13 19  6 16 18  0  0.0-5.876366049051e-05 1.818989403546e-12 0.000000000000e+00
    9.900000000000e+01-1.953125000000e+01 4.466971781590e-09 2.049233752868e+00
   -1.017004251480e-06 3.525957814418e-03 6.657093763351e-06 5.153659383774e+03
    6.480000000000e+04 3.352761268616e-08-1.141599293999e+00-5.215406417847e-08
    9.675571545706e-01 2.548125000000e+02 1.271713577415e+00-7.916758336190e-09
   -4.178745490094e-10 1.000000000000e+00 2.058000000000e+03 0.000000000000e+00
    3.400000000000e+00 0.000000000000e+00-1.117587089539e-08 9.900000000000e+01
    5.760000000000e+04 4.000000000000e+00
31 19  6 16 18  0  0.0 3.065587952733e-05-2.614797267597e-12 0.000000000000e+00
    7.100000000000e+01 6.956250000000e+01 4.177316859157e-09-1.021334252843e-01
    3.764405846596e-06 9.218165534548e-03 1.163780689240e-05 5.153637754440e+03
    6.480000000000e+04 1.154839992523e-07-1.892765806322e-01-4.656612873077e-08
    9.602806819677e-01 1.518750000000e+02 6.709714732265e-03-7.872827934884e-09
   -2.403671551140e-10 1.000000000000e+00 2.058000000000e+03 0.000000000000e+00
    2.400000000000e+00 0.000000000000e+00-1.350417733192e-08 7.100000000000e+01
    5.760000000000e+04 4.000000000000e+00
17 19  6 16 18  0  0.0 7.281126454473e-05 6.366462912410e-12 0.000000000000e+00
    7.600000000000e+01-8.981250000000e+01 4.235176412097e-09 2.938680765061e+00
   -4.557892680168e-06 1.284257182851e-02 1.834705471992e-06 5.153757593155e+03
    6.480000000000e+04 2.197921276093e-07 1.930675237836e+00-1.955777406693e-07
    9.839639256585e-01 3.535937500000e+02-1.712451079398e+00-7.954259898281e-09
   -2.825117677491e-10 1.000000000000e+00 2.058000000000e+03 0.000000000000e+00
    2.400000000000e+00 0.000000000000e+00-1.117587089539e-08 7.600000000000e+01
    5.760000000000e+04 4.000000000000e+00
26 19  6 16 18  0  0.0 2.285377122462e-04 9.436007530894e-12 0.000000000000e+00
    6.100000000000e+01 1.365000000000e+02 4.821986569381e-09-1.440694235338e+00
    6.832182407379e-06 3.734478377737e-03 3.879889845848e-06 5.153625041962e+03
    6.480000000000e+04 3.911554813385e-08 8.031079058793e-01-9.313225746155e-08
    9.513688073924e-01 2.974375000000e+02 1.687767286053e-01-8.393563911342e-09
    4.268034923643e-10 1.000000000000e+00 2.058000000000e+03 0.000000000000e+00
    2.400000000000e+00 0.000000000000e+00 7.450580596924e-09 6.100000000000e+01
    5.760000000000e+04 4.000000000000e+00
20 19  6 16 18  0  0.0 5.254200659692e-04 2.273736754432e-13 0.000000000000e+00
    4.100000000000e+01 1.481250000000e+01 5.274148260874e-09 4.735791643702e-01
    5.085021257401e-07 4.476533271372e-03 8.588656783104e-06 5.153688358307e+03
    6.480000000000e+04 8.009374141693e-08-2.434078550285e+00-4.097819328308e-08
    9.308638117456e-01 2.013437500000e+02 2.377270473006e+00-8.324275310908e-09
    4.514473760239e-10 1.000000000000e+00 2.058000000000e+03 0.000000000000e+00
    2.400000000000e+00 0.000000000000e+00-8.847564458847e-09 4.100000000000e+01
    5.760000000000e+04 4.000000000000e+00
21 19  6 16 18  0  0.0-1.719980500638e-04 7.275957614183e-12 0.000000000000e+00
    1.010000000000e+02-1.005000000000e+02 4.615906556750e-09-9.891209093818e-01
   -5.267560482025e-06 2.453820966184e-02 1.115165650845e-05 5.153729566574e+03
    6.480000000000e+04-4.675239324570e-07 2.865016266879e+00 1.043081283569e-07
    9.491459297035e-01 1.612500000000e+02-1.436239333796e+00-8.422493687812e-09
    5.107355599004e-11 1.000000000000e+00 2.058000000000e+03 0.000000000000e+00
    2.400000000000e+00 0.000000000000e+00-1.024454832077e-08 1.010000000000e+02
    5.760000000000e+04 4.000000000000e+00
 4 19  6 16 18  0  0.0 1.673568040133e-04 1.591615728103e-12 0.000000000000e+00
    6.100000000000e+01-2.512500000000e+01 4.720910930604e-09-7.796682907138e-02
   -1.197680830956e-06 4.389024106786e-04 6.042420864105e-06 5.153724750519e+03
    6.480000000000e+04-1.005828380585e-07-1.233806499736e+00-2.235174179077e-08
    9.594292577939e-01 2.636562500000e+02-1.425404498756e+00-8.027834391525e-09
   -4.068026592493e-10 1.000000000000e+00 2.058000000000e+03 0.000000000000e+00
    6.144000000000e+03 6.300000000000e+01-8.847564458847e-09 6.100000000000e+01
    5.766000000000e+04 4.000000000000e+00
 8 19  6 16 17 59 44.0-1.476788893342e-04-1.477928890381e-12 0.000000000000e+00
    1.400000000000e+01-7.868750000000e+01 4.647693595094e-09-3.102571497962e+00
   -4.004687070847e-06 4.388262052089e-03 1.085922122002e-06 5.153753969193e+03
    6.478400000000e+04-4.842877388000e-08 1.862834661878e+00 6.705522537231e-08
    9.700808681963e-01 3.651562500000e+02-2.106442224974e-01-8.285345117881e-09
   -1.878649681871e-10 1.000000000000e+00 2.058000000000e+03 0.000000000000e+00
    2.400000000000e+00 0.000000000000e+00 5.122274160385e-09 1.400000000000e+01
    5.808000000000e+04 4.000000000000e+00
13 19  6 16 17 59 44.0-5.876319482923e-05 1.818989403546e-12 0.000000000000e+00
    4.000000000000e+00-1.953125000000e+01 4.466971781590e-09 2.046901229469e+00
   -1.017004251480e-06 3.525958047248e-03 6.657093763351e-06 5.153659397125e+03
    6.478400000000e+04 3.352761268616e-08-1.141599181354e+00-5.215406417847e-08
    9.675571677369e-01 2.548125000000e+02 1.271712225679e+00-7.916758336190e-09
   -4.178745490094e-10 1.000000000000e+00 2.058000000000e+03 0.000000000000e+00
    2.400000000000e+00 0.000000000000e+00-1.117587089539e-08 4.000000000000e+00
    6.051000000000e+04 4.000000000000e+00
16 19  6 16 17 59 44.0-4.860665649176e-05-3.069544618484e-12 0.000000000000e+00
    8.000000000000e+00 1.223750000000e+02 4.194460430399e-09-2.358123442770e+00
    6.003305315971e-06 1.077329216059e-02 3.285706043243e-06 5.153592884064e+03
    6.478400000000e+04 8.754432201385e-08 9.155507694159e-01-2.216547727585e-07
    9.829150894674e-01 3.289375000000e+02 5.818424665656e-01-8.029620180196e-09
    4.789485215569e-10 1.000000000000e+00 2.058000000000e+03 0.000000000000e+00
    2.400000000000e+00 0.000000000000e+00-1.071020960808e-08 8.000000000000e+00
    6.063000000000e+04 4.000000000000e+00
16 19  6 16 19 59 44.0-4.862854257226e-05-3.069544618484e-12 0.000000000000e+00
    9.000000000000e+00 1.182187500000e+02 4.086241636937e-09-1.307886390581e+00
    6.169080734253e-06 1.077362429351e-02 2.732500433922e-06 5.153592899323e+03
    7.198400000000e+04 2.104789018631e-07 9.154930060955e-01-1.192092895508e-07
    9.829185843787e-01 3.318125000000e+02 5.818333774556e-01-8.081050893921e-09
    4.650193699233e-10 1.000000000000e+00 2.058000000000e+03 0.000000000000e+00
    2.400000000000e+00 0.000000000000e+00-1.071020960808e-08 9.000000000000e+00
    6.480000000000e+04 4.000000000000e+00
13 19  6 16 19 59 44.0-5.875015631318e-05 1.818989403546e-12 0.000000000000e+00
    1.100000000000e+01-2.521875000000e+01 4.467328939325e-09 3.097184335782e+00
   -1.205131411552e-06 3.526663291268e-03 6.632879376411e-06 5.153657943726e+03
    7.198400000000e+04-1.862645149231e-08-1.141655470053e+00 3.911554813385e-08
    9.675542711591e-01 2.554375000000e+02 1.271618455556e+00-7.833897741857e-09
   -4.746626287466e-10 1.000000000000e+00 2.058000000000e+03 0.000000000000e+00
    2.400000000000e+00 0.000000000000e+00-1.117587089539e-08 1.100000000000e+01
    6.480000000000e+04 4.000000000000e+00
 2 19  6 16 20  0  0.0-2.389010041952e-04-8.867573342286e-12 0.000000000000e+00
    4.300000000000e+01-1.155000000000e+02 4.279821128872e-09 2.182147473395e+00
   -6.169080734253e-06 1.889538194519e-02 9.562820196152e-06 5.153736892700e+03
    7.200000000000e+04 2.067536115646e-07 2.860616518812e+00-2.812594175339e-07
    9.553852694599e-01 1.877500000000e+02-1.735992911576e+00-7.581030066046e-09
   -5.500229106620e-11 1.000000000000e+00 2.058000000000e+03 0.000000000000e+00
    2.400000000000e+00 0.000000000000e+00-2.048909664154e-08 4.300000000000e+01
    6.480000000000e+04 4.000000000000e+00
 1 19  6 16 20  0  0.0-4.285527393222e-05-9.777068044059e-12 0.000000000000e+00
    4.200000000000e+01-1.226562500000e+02 3.896948037813e-09 1.902876077055e+00
   -6.316229701042e-06 8.946400368586e-03 1.114793121815e-05 5.153663675308e+03
    7.200000000000e+04-2.551823854446e-07 2.929743163608e+00-1.117587089539e-08
    9.763090985528e-01 1.756250000000e+02 7.179138182322e-01-7.629603517897e-09
    8.214627886510e-11 1.000000000000e+00 2.058000000000e+03 0.000000000000e+00
    2.400000000000e+00 0.000000000000e+00 5.587935447693e-09 4.200000000000e+01
    6.480000000000e+04 4.000000000000e+00
 8 19  6 16 20  0  0.0-1.476895995438e-04-1.477928890381e-12 0.000000000000e+00
    1.500000000000e+01-8.287500000000e+01 4.683409368513e-09-2.050190749988e+00
   -4.362314939499e-06 4.388452856801e-03 1.193955540657e-06 5.153753295898e+03
    7.200000000000e+04-9.685754776001e-08 1.862774136568e+00-6.519258022308e-08
    9.700791229350e-01 3.651875000000e+02-2.105583228736e-01-8.407850220710e-09
   -1.450060400836e-10 1.000000000000e+00 2.058000000000e+03 0.000000000000e+00
    2.400000000000e+00 0.000000000000e+00 5.122274160385e-09 1.500000000000e+01
    6.480000000000e+04 4.000000000000e+00
 5 19  6 16 20  0  0.0 5.089677870274e-07-1.136868377216e-13 0.000000000000e+00
    5.400000000000e+01 1.987500000000e+01 4.855559396396e-09-1.414191351638e+00
    1.031905412674e-06 5.684041068889e-03 7.832422852516e-06 5.153703905106e+03
    7.200000000000e+04 1.024454832077e-07-2.338846331320e+00-3.539025783539e-08
    9.498573204329e-01 2.234062500000e+02 7.169613985829e-01-8.036763334880e-09
    4.543046378974e-10 1.000000000000e+00 2.058000000000e+03 0.000000000000e+00
    2.400000000000e+00 0.000000000000e+00-1.117587089539e-08 5.400000000000e+01
    6.480000000000e+04 4.000000000000e+00
